STARLINK-30527          
1 58007U 23153S   26068.38881244  .00001635  00000+0  68950-4 0  9990
2 58007  43.0021 200.0773 0002842 280.8447  79.2084 15.27585536137413
FLOCK 4G-30             
1 62679U 25009BY  26068.70871344  .00013147  00000+0  49475-3 0  9999
2 62679  97.3969 150.6012 0003795 342.4152  17.6955 15.27244548121341
